STARLINK-3098           
1 49442U 21104AL  25185.54901961  .00000470  00000+0  47588-4 0  9993
2 49442  53.2167 243.0692 0001072  83.2466 276.8648 15.08839986201454
STARLINK-3136           
1 49443U 21104AM  25185.53061450  .00001060  00000+0  84683-4 0  9996
2 49443  53.2164 243.1497 0000745  73.3939 286.7135 15.08839189201453
STARLINK-3126           
1 49444U 21104AN  25185.54630729  .00000698  00000+0  61975-4 0  9994
2 49444  53.2169 243.0906 0001270  88.3167 271.7971 15.08829389201459
STARLINK-3122           
1 49445U 21104AP  25185.46446319  .00001984  00000+0  14267-3 0  9996
2 49445  53.2170 253.8448 0000863  76.9397 283.1691 15.08843184201294
STARLINK-3099           
1 49446U 21104AQ  25185.47542173  .00000537  00000+0  51819-4 0  9991
2 49446  53.2167 243.3996 0001071  83.9586 276.1528 15.08836319201443
STARLINK-3115           
1 49447U 21104AR  25185.41930136 -.00000099  00000+0  11867-4 0  9999
2 49447  53.2165 253.6504 0001208  90.5646 269.5485 15.08832420201294
STARLINK-3137           
1 49449U 21104AT  25185.47756440  .00001169  00000+0  91011-4 0  9998
2 49449  53.2163 253.3530 0001130  58.9337 301.1766 15.09062141201302
STARLINK-3127           
1 49450U 21104AU  25185.55914641  .00000548  00000+0  52507-4 0  9995
2 49450  53.2173 253.0633 0001183  79.1422 280.9704 15.08836608201575
STARLINK-3125           
1 49451U 21104AV  25185.47817496  .00000272  00000+0  35164-4 0  9991
2 49451  53.2167 253.3851 0001108  88.1723 271.9396 15.08837644201304
STARLINK-3150           
1 49452U 21104AW  25185.60057966  .00000102  00000+0  24498-4 0  9995
2 49452  53.2169 252.8755 0001113  84.2811 275.8308 15.08835954201325
STARLINK-3129           
1 49453U 21104AX  25185.41290471  .00000630  00000+0  57670-4 0  9999
2 49453  53.2162 253.7650 0001198  84.3339 275.7789 15.08836827201290
STARLINK-3160           
1 49454U 21104AY  25185.60697821 -.00000451  00000+0 -10254-4 0  9991
2 49454  53.2169 252.8075 0001162  88.2743 271.8383 15.08836018201325
STARLINK-3145           
1 49455U 21104AZ  25185.45977854  .00000257  00000+0  34198-4 0  9997
2 49455  53.2167 253.4704 0001008  81.0150 279.0956 15.08839435201302
STARLINK-3124           
1 49456U 21104BA  25185.60425631  .00001197  00000+0  93261-4 0  9996
2 49456  53.2165 252.8684 0001124  80.2349 279.8770 15.08842877201329
STARLINK-3132           
1 49457U 21104BB  25185.58953539 -.00000089  00000+0  12505-4 0  9999
2 49457  53.2172 252.8987 0001026  79.6857 280.4251 15.08841864201328
STARLINK-3156           
1 49458U 21104BC  25185.59594299 -.00000002  00000+0  17969-4 0  9999
2 49458  53.2170 252.8588 0001333  84.4255 275.6890 15.08851304201326
STARLINK-3141           
1 49459U 21104BD  25185.45241477  .00001030  00000+0  82775-4 0  9990
2 49459  53.2168 253.5040 0001147  83.3571 276.7551 15.08841949201305
STARLINK-3140           
1 49460U 21104BE  25185.58121412  .00000827  00000+0  70000-4 0  9993
2 49460  53.2165 252.9247 0000978  82.4976 277.6128 15.08844060201314
STARLINK-3219           
1 49724U 21115A   25185.38528417  .00000092  00000+0  23885-4 0  9995
2 49724  53.2155 184.0228 0001251  78.3568 281.7564 15.08840681198046
STARLINK-3218           
1 49725U 21115B   25185.27487324 -.00000893  00000+0 -38025-4 0  9998
2 49725  53.2167 184.4028 0001127  87.4078 272.7043 15.08838668198034
STARLINK-3242           
1 49727U 21115D   25185.42849332  .00000344  00000+0  39719-4 0  9998
2 49727  53.2152 193.6071 0001120  84.5482 275.5638 15.08843263197914
STARLINK-3240           
1 49728U 21115E   25185.43216695  .00002336  00000+0  16476-3 0  9997
2 49728  53.2164 193.5912 0001516  68.3336 291.7817 15.08851914197919
STARLINK-3251           
1 49729U 21115F   25185.29232072  .00000266  00000+0  34799-4 0  9998
2 49729  53.2157 194.1034 0000931  69.7394 290.3698 15.08840868197898
STARLINK-3249           
1 49730U 21115G   25185.26292081  .00000102  00000+0  24502-4 0  9993
2 49730  53.2160 194.5455 0001222  71.9017 288.2109 15.08835311197885
STARLINK-3246           
1 49732U 21115J   25185.40276640  .00000742  00000+0  64700-4 0  9998
2 49732  53.2157 193.8807 0001173  84.2963 275.8163 15.08833775197905
STARLINK-3252           
1 49733U 21115K   25185.38066277 -.00001334  00000+0 -65720-4 0  9992
2 49733  53.2159 193.8245 0001034  41.9159 318.1912 15.08840471197901
STARLINK-3238           
1 49734U 21115L   25185.26749966 -.00000018  00000+0  16929-4 0  9997
2 49734  53.2156 184.3541 0001188  80.2388 279.8738 15.08840788198038
STARLINK-3113           
1 49735U 21115M   25185.43952439  .00000280  00000+0  35669-4 0  9990
2 49735  53.2156 193.4424 0001023  73.4380 286.6725 15.08837294197910
STARLINK-3148           
1 49736U 21115N   25185.26380218  .00000693  00000+0  61599-4 0  9991
2 49736  53.2155 184.2305 0001197  83.3420 276.7709 15.08844136198032
STARLINK-3225           
1 49737U 21115P   25185.40365361  .00000132  00000+0  26366-4 0  9991
2 49737  53.2158 183.7186 0001114  84.7592 275.3527 15.08840261198051
STARLINK-3143           
1 49738U 21115Q   25185.16543819 -.00000088  00000+0  12533-4 0  9993
2 49738  53.2161 184.9965 0001194  76.4298 283.6827 15.08837552198013
STARLINK-3155           
1 49739U 21115R   25185.19298396 -.00000582  00000+0 -18510-4 0  9995
2 49739  53.2169 194.6683 0000983  78.8035 281.3068 15.08842035198987
STARLINK-3226           
1 49740U 21115S   25185.28685070 -.00000344  00000+0 -35572-5 0  9990
2 49740  53.2162 184.2166 0000992  58.3142 301.7947 15.08840516198036
STARLINK-3244           
1 49741U 21115T   25185.41565488 -.00000681  00000+0 -24706-4 0  9996
2 49741  53.2160 183.6742 0001356  90.1862 269.9286 15.08839217198055
STARLINK-3202           
1 49742U 21115U   25185.29693810 -.00000537  00000+0 -15663-4 0  9996
2 49742  53.2161 184.1997 0001271  77.9416 282.1719 15.08839646198031
STARLINK-3239           
1 49743U 21115V   25185.27948592 -.00000491  00000+0 -12749-4 0  9996
2 49743  53.2161 184.2072 0001131  78.8312 281.2807 15.08837298198036
STARLINK-3231           
1 49744U 21115W   25185.29421236  .00000638  00000+0  58151-4 0  9998
2 49744  53.2159 184.1078 0001149  82.5027 277.6095 15.08840853198032
STARLINK-3241           
1 49745U 21115X   25185.29053209 -.00000382  00000+0 -59339-5 0  9998
2 49745  53.2162 184.2016 0001183  72.1240 287.9881 15.08841229198035
STARLINK-3233           
1 49746U 21115Y   25185.37790214  .00000834  00000+0  70457-4 0  9995
2 49746  53.2155 183.8369 0001085  74.6602 285.4510 15.08837167198043
STARLINK-3247           
1 49747U 21115Z   25185.43309957  .00000098  00000+0  24265-4 0  9991
2 49747  53.2160 183.5904 0001278  85.0304 275.0834 15.08836117198050
STARLINK-3248           
1 49748U 21115AA  25185.41094968 -.00012451  00000+0 -76465-3 0  9999
2 49748  53.2164 183.2627 0001531 105.2456 254.8705 15.08883656198062
STARLINK-3250           
1 49749U 21115AB  25185.39728844  .00000682  00000+0  60949-4 0  9996
2 49749  53.2156 183.9892 0001217  78.3746 281.7382 15.08837162198047
STARLINK-3236           
1 49750U 21115AC  25185.39358255  .00001013  00000+0  81696-4 0  9994
2 49750  53.2156 183.7738 0000903  80.8171 279.2923 15.08834908198056
STARLINK-3229           
1 49751U 21115AD  25185.37420824  .00000304  00000+0  37189-4 0  9995
2 49751  53.2157 183.7760 0001199  59.2233 300.8877 15.08839009198056
STARLINK-3209           
1 49752U 21115AE  25185.27673889  .00000132  00000+0  26385-4 0  9991
2 49752  53.2164 174.3020 0001200  80.2193 279.8935 15.08834866198171
STARLINK-3200           
1 49753U 21115AF  25185.38893608  .00000411  00000+0  43936-4 0  9998
2 49753  53.2158 183.7857 0001287  85.6550 274.4589 15.08842118198050
STARLINK-3193           
1 49754U 21115AG  25185.34571489  .00001018  00000+0  82041-4 0  9999
2 49754  53.2157 174.0859 0001127  82.0354 278.0766 15.08834552198185
STARLINK-3210           
1 49755U 21115AH  25185.40093753  .00000684  00000+0  61039-4 0  9992
2 49755  53.2159 183.7801 0001246  80.0511 280.0622 15.08841400198057
STARLINK-3207           
1 49756U 21115AJ  25185.35306527  .00000685  00000+0  61113-4 0  9997
2 49756  53.2159 173.9495 0001051  88.8027 271.3085 15.08834217198188
STARLINK-3197           
1 49757U 21115AK  25185.34665385  .00000372  00000+0  41440-4 0  9991
2 49757  53.2162 173.9875 0001236  75.2272 284.8857 15.08839928198182
STARLINK-3194           
1 49758U 21115AL  25185.36041665  .00000830  00000+0  70220-4 0  9990
2 49758  53.2157 173.9157 0001218  74.9060 285.2067 15.08840611198180
STARLINK-3204           
1 49759U 21115AM  25185.34938452  .00001035  00000+0  83136-4 0  9996
2 49759  53.2154 173.9653 0001616 100.9119 259.2055 15.08833849198189
STARLINK-3199           
1 49760U 21115AN  25185.36777535  .00000083  00000+0  23279-4 0  9997
2 49760  53.2158 173.8820 0001196  72.1592 287.9530 15.08840483198197
STARLINK-3203           
1 49761U 21115AP  25185.35674257  .00000615  00000+0  56716-4 0  9997
2 49761  53.2160 173.9321 0001297  82.5134 277.6006 15.08835933198184
STARLINK-3195           
1 49762U 21115AQ  25185.37514781  .00001060  00000+0  84627-4 0  9992
2 49762  53.2156 173.8480 0000899  53.1521 306.9554 15.08849948198192
STARLINK-3198           
1 49763U 21115AR  25185.36409611  .00000403  00000+0  43372-4 0  9999
2 49763  53.2158 173.8979 0001140  74.2777 285.8341 15.08841525198197
STARLINK-3227           
1 49765U 21115AT  25185.23994878  .00000899  00000+0  74515-4 0  9993
2 49765  53.2158 174.4650 0001034  75.2188 284.8918 15.08846041198176
STARLINK-3190           
1 49766U 21115AU  25185.25465917 -.00000903  00000+0 -38654-4 0  9995
2 49766  53.2161 174.3956 0001396  85.4871 274.6281 15.08838422198176
STARLINK-3192           
1 49767U 21115AV  25185.37881575 -.00000078  00000+0  13154-4 0  9991
2 49767  53.2159 173.8303 0001159  75.8550 284.2571 15.08839308198193
